[{"OBJECT_NAME":"TIANMU-1 19","OBJECT_ID":"2023-208A","EPOCH":"2026-03-09T22:13:36.801696","MEAN_MOTION":15.2984143,"ECCENTRICITY":0.00039292,"INCLINATION":97.4383,"RA_OF_ASC_NODE":184.9132,"ARG_OF_PERICENTER":316.2611,"MEAN_ANOMALY":43.8317,"EPHEMERIS_TYPE":0,"CLASSIFICATION_TYPE":"U","NORAD_CAT_ID":58660,"ELEMENT_SET_NO":999,"REV_AT_EPOCH":12214,"BSTAR":0.00040995676,"MEAN_MOTION_DOT":0.00011779,"MEAN_MOTION_DDOT":0},{"OBJECT_NAME":"STARLINK-35349","OBJECT_ID":"2025-221N","EPOCH":"2026-03-09T07:59:43.238976","MEAN_MOTION":15.30199749,"ECCENTRICITY":0.00011931,"INCLINATION":53.1591,"RA_OF_ASC_NODE":90.3675,"ARG_OF_PERICENTER":85.882,"MEAN_ANOMALY":274.2317,"EPHEMERIS_TYPE":0,"CLASSIFICATION_TYPE":"U","NORAD_CAT_ID":65835,"ELEMENT_SET_NO":999,"REV_AT_EPOCH":2467,"BSTAR":0.00076326249,"MEAN_MOTION_DOT":0.00022314,"MEAN_MOTION_DDOT":0}]
